OBJECT_NAME,OBJECT_ID,EPOCH,MEAN_MOTION,ECCENTRICITY,INCLINATION,RA_OF_ASC_NODE,ARG_OF_PERICENTER,MEAN_ANOMALY,EPHEMERIS_TYPE,CLASSIFICATION_TYPE,NORAD_CAT_ID,ELEMENT_SET_NO,REV_AT_EPOCH,BSTAR,MEAN_MOTION_DOT,MEAN_MOTION_DDOT
FORMOSAT 7-6,2019-036Q,2026-07-17T03:52:58.085760,14.96616923,.00013478,23.9969,127.5270,92.7890,267.2765,0,U,44353,999,38631,.91400887E-4,.137E-4,0
FORMOSAT 7-5,2019-036V,2026-07-17T17:44:37.002624,14.96597681,.0000307,23.9992,62.3868,152.5178,207.5339,0,U,44358,999,38693,.93688E-4,.1396E-4,0
METEOR-M2 2,2019-038A,2026-07-17T17:33:14.764896,14.24373185,.0000556,98.9160,186.4704,358.2813,1.8363,0,U,44387,999,36564,.39623E-4,.46E-6,0
GLOBAL-4,2019-054E,2026-07-17T15:14:46.755168,15.67273904,.0005755,45.0054,60.3271,212.0314,148.0235,0,U,44499,999,38513,.3281E-3,.35957E-3,0
ZY-1 02D,2019-059A,2026-07-17T17:47:58.907328,14.35268878,.0003069,98.6708,260.3094,289.5490,70.5364,0,U,44528,999,35872,.26809E-4,.32E-6,0
TAURUS-1 (JINNIUZUO 1),2019-059C,2026-07-17T11:40:37.673760,14.72382276,.0008204,98.6440,5.2040,207.9142,152.1624,0,U,44530,999,36310,.5563E-3,.3469E-4,0
ZHUHAI-1 03B,2019-060C,2026-07-17T14:56:20.728896,15.55726871,.000861,97.5562,358.0753,196.5785,163.5189,0,U,44536,999,38105,.2752E-3,.18887E-3,0
ZHUHAI-1 03D,2019-060E,2026-07-17T17:56:11.908320,15.51442304,.0007637,97.5405,350.0602,181.8304,178.2921,0,U,44538,999,38081,.30461E-3,.17899E-3,0
ZHUHAI-1 03E,2019-060F,2026-07-17T16:29:39.027264,15.41970865,.0004432,97.5651,349.7197,264.1650,95.9091,0,U,44539,999,38046,.22148E-3,.9344E-4,0
GAOFEN-7,2019-072A,2026-07-17T17:13:12.603072,15.20930324,.0017043,97.5700,259.4658,303.0112,56.9485,0,U,44703,999,37228,.92197E-4,.1975E-4,0
JILIN-1 GAOFEN 2A,2019-075A,2026-07-17T16:19:27.560640,15.40051717,.0004929,97.4960,283.1987,344.9258,15.1840,0,U,44777,999,36957,.18134E-3,.7162E-4,0
NINGXIA-1 1,2019-076A,2026-07-17T18:01:38.208288,14.02042267,.0011459,45.0068,43.2664,300.7953,59.1752,0,U,44779,999,34214,.24528E-4,-.92E-6,0
NINGXIA-1 5,2019-076E,2026-07-17T16:36:39.188736,14.02090049,.0011368,45.0064,42.8617,291.2951,68.6669,0,U,44783,999,34205,.36781E-4,-.73E-6,0
KL-ALPHA A,2019-077A,2026-07-17T16:02:31.513056,13.56045661,.001219,88.9228,219.2309,30.4610,329.7249,0,U,44785,999,32986,-.10078E-3,-.58E-6,0
CARTOSAT-3,2019-081A,2026-07-17T17:13:56.570304,15.19193118,.0012817,97.4285,260.0908,50.8077,309.4294,0,U,44804,999,36810,.82724E-4,.1675E-4,0
JILIN-1 GAOFEN 2B,2019-086A,2026-07-17T16:12:42.660000,15.21014802,.0013462,97.4869,270.4797,206.6411,153.4134,0,U,44836,999,36512,.14085E-3,.306E-4,0
TIANQIN 1 (CAS-6),2019-093A,2026-07-17T15:59:35.141280,14.95570262,.0009891,97.7813,282.2882,319.3803,40.6679,0,U,44879,999,35660,.15157E-3,.1624E-4,0
ETRSS-1,2019-093B,2026-07-17T17:32:46.565664,14.96020283,.0009955,97.7830,282.8389,319.3216,40.7261,0,U,44880,999,35662,.18328E-3,.2E-4,0
TIANYAN 01,2019-093C,2026-07-17T16:06:55.683648,14.86561363,.0013376,97.7519,270.1585,353.2868,6.8167,0,U,44881,999,35594,.34819E-4,.255E-5,0
TIANYAN 02,2019-093D,2026-07-17T16:41:09.334752,15.05544240,.0012373,97.7933,293.7856,279.0645,80.9181,0,U,44882,999,35720,.20791E-3,.2933E-4,0
CBERS 4A,2019-093E,2026-07-17T16:29:12.741792,14.81448770,.0001611,98.0179,266.1516,129.5201,230.6154,0,U,44883,999,35559,.14061E-3,.1047E-4,0
WEILAI 1R,2019-093F,2026-07-17T17:23:21.461280,15.00879658,.0015344,97.7891,288.6670,299.7279,60.2417,0,U,44884,999,35700,.20233E-3,.2518E-4,0
FLORIPASAT-1,2019-093G,2026-07-17T16:42:09.266976,15.04152342,.001076,97.7917,293.1567,331.8425,28.2217,0,U,44885,999,35723,.18007E-3,.2437E-4,0
SHUNTIAN,2019-093H,2026-07-17T17:22:28.321824,14.95285681,.0010653,97.8009,286.7306,329.6778,30.3825,0,U,44886,999,35674,.15639E-3,.1665E-4,0
ELEKTRO-L 3,2019-095A,2026-07-17T15:36:48.951648,1.00271487,.0001378,0.3336,82.3212,20.1142,143.2172,0,U,44903,999,2401,0,-.106E-5,0
GONETS-M 14,2019-096A,2026-07-17T17:13:55.943040,12.42871110,.0014429,82.5213,65.7104,85.3763,274.8965,0,U,44905,999,29747,.45112E-3,.73E-6,0
GONETS-M 15,2019-096B,2026-07-17T16:00:12.674304,12.42883768,.0016146,82.5233,66.2084,107.1794,253.1055,0,U,44906,999,29743,.10955E-2,.162E-5,0
GONETS-M 16,2019-096C,2026-07-17T16:37:20.942400,12.42893068,.0011108,82.5178,65.1303,146.0261,214.1532,0,U,44907,999,29742,.99305E-3,.148E-5,0
