FORMOSAT 7-6            
1 44353U 19036Q   26198.16178340  .00001370  00000+0  91401-4 0  9993
2 44353  23.9969 127.5270 0001347  92.7890 267.2765 14.96616923386316
FORMOSAT 7-5            
1 44358U 19036V   26198.73931716  .00001396  00000+0  93688-4 0  9992
2 44358  23.9992  62.3868 0000307 152.5178 207.5339 14.96597681386936
METEOR-M2 2             
1 44387U 19038A   26198.73142089  .00000046  00000+0  39623-4 0  9993
2 44387  98.9160 186.4704 0000556 358.2813   1.8363 14.24373185365640
GLOBAL-4                
1 44499U 19054E   26198.63526337  .00035957  00000+0  32810-3 0  9995
2 44499  45.0054  60.3271 0005755 212.0314 148.0235 15.67273904385131
ZY-1 02D                
1 44528U 19059A   26198.74165402  .00000032  00000+0  26809-4 0  9995
2 44528  98.6708 260.3094 0003069 289.5490  70.5364 14.35268878358724
TAURUS-1 (JINNIUZUO 1)  
1 44530U 19059C   26198.48654715  .00003469  00000+0  55630-3 0  9999
2 44530  98.6440   5.2040 0008204 207.9142 152.1624 14.72382276363105
ZHUHAI-1 03B            
1 44536U 19060C   26198.62246214  .00018887  00000+0  27520-3 0  9991
2 44536  97.5562 358.0753 0008610 196.5785 163.5189 15.55726871381052
ZHUHAI-1 03D            
1 44538U 19060E   26198.74736005  .00017899  00000+0  30461-3 0  9998
2 44538  97.5405 350.0602 0007637 181.8304 178.2921 15.51442304380819
ZHUHAI-1 03E            
1 44539U 19060F   26198.68725726  .00009344  00000+0  22148-3 0  9999
2 44539  97.5651 349.7197 0004432 264.1650  95.9091 15.41970865380467
GAOFEN-7                
1 44703U 19072A   26198.71750698  .00001975  00000+0  92197-4 0  9999
2 44703  97.5700 259.4658 0017043 303.0112  56.9485 15.20930324372280
JILIN-1 GAOFEN 2A       
1 44777U 19075A   26198.68018010  .00007162  00000+0  18134-3 0  9996
2 44777  97.4960 283.1987 0004929 344.9258  15.1840 15.40051717369573
NINGXIA-1 1             
1 44779U 19076A   26198.75113667 -.00000092  00000+0  24528-4 0  9992
2 44779  45.0068  43.2664 0011459 300.7953  59.1752 14.02042267342149
NINGXIA-1 5             
1 44783U 19076E   26198.69212024 -.00000073  00000+0  36781-4 0  9990
2 44783  45.0064  42.8617 0011368 291.2951  68.6669 14.02090049342057
KL-ALPHA A              
1 44785U 19077A   26198.66842029 -.00000058  00000+0 -10078-3 0  9998
2 44785  88.9228 219.2309 0012190  30.4610 329.7249 13.56045661329861
CARTOSAT-3              
1 44804U 19081A   26198.71801586  .00001675  00000+0  82724-4 0  9996
2 44804  97.4285 260.0908 0012817  50.8077 309.4294 15.19193118368106
JILIN-1 GAOFEN 2B       
1 44836U 19086A   26198.67549375  .00003060  00000+0  14085-3 0  9990
2 44836  97.4869 270.4797 0013462 206.6411 153.4134 15.21014802365124
TIANQIN 1 (CAS-6)       
1 44879U 19093A   26198.66637895  .00001624  00000+0  15157-3 0  9994
2 44879  97.7813 282.2882 0009891 319.3803  40.6679 14.95570262356608
ETRSS-1                 
1 44880U 19093B   26198.73109451  .00002000  00000+0  18328-3 0  9998
2 44880  97.7830 282.8389 0009955 319.3216  40.7261 14.96020283356620
TIANYAN 01              
1 44881U 19093C   26198.67147782  .00000255  00000+0  34819-4 0  9995
2 44881  97.7519 270.1585 0013376 353.2868   6.8167 14.86561363355945
TIANYAN 02              
1 44882U 19093D   26198.69524693  .00002933  00000+0  20791-3 0  9996
2 44882  97.7933 293.7856 0012373 279.0645  80.9181 15.05544240357209
CBERS 4A                
1 44883U 19093E   26198.68695303  .00001047  00000+0  14061-3 0  9991
2 44883  98.0179 266.1516 0001611 129.5201 230.6154 14.81448770355591
WEILAI 1R               
1 44884U 19093F   26198.72455395  .00002518  00000+0  20233-3 0  9994
2 44884  97.7891 288.6670 0015344 299.7279  60.2417 15.00879658357004
FLORIPASAT-1            
1 44885U 19093G   26198.69594059  .00002437  00000+0  18007-3 0  9998
2 44885  97.7917 293.1567 0010760 331.8425  28.2217 15.04152342357233
SHUNTIAN                
1 44886U 19093H   26198.72393891  .00001665  00000+0  15639-3 0  9994
2 44886  97.8009 286.7306 0010653 329.6778  30.3825 14.95285681356749
ELEKTRO-L 3             
1 44903U 19095A   26198.65056657 -.00000106  00000+0  00000+0 0  9996
2 44903   0.3336  82.3212 0001378  20.1142 143.2172  1.00271487 24011
GONETS-M 14             
1 44905U 19096A   26198.71800860  .00000073  00000+0  45112-3 0  9998
2 44905  82.5213  65.7104 0014429  85.3763 274.8965 12.42871110297477
GONETS-M 15             
1 44906U 19096B   26198.66681336  .00000162  00000+0  10955-2 0  9993
2 44906  82.5233  66.2084 0016146 107.1794 253.1055 12.42883768297436
GONETS-M 16             
1 44907U 19096C   26198.69260350  .00000148  00000+0  99305-3 0  9997
2 44907  82.5178  65.1303 0011108 146.0261 214.1532 12.42893068297421
